#dP2021  2 10 12  0  0.00000000      96 __u+U ITR00 EXT  IAC
## 2144 302400.00000000   900.00000000 59255 0.5000000000000
+  116   C06C07C08C09C10C11C12C13C14C16C19C20C21C22C23C24C25
+        C26C27C28C29C30C32C33C34C35C36C37C38C39C40C41C42C43
+        C44C45C46E01E02E03E04E05E07E08E09E11E12E13E14E15E18
+        E19E21E24E25E26E27E30E31E33E36G01G02G03G04G05G06G07
+        G08G09G10G11G12G13G14G15G16G17G18G19G20G21G22G23G24
+        G25G26G27G28G29G30G31G32J01J02J03R01R02R03R04R05R07
+        R08R11R12R13R14R15R16R17R18R19R20R21R22R24  0  0  0
++         9 10 10 10 10  7  9  9 14 11  8  8  9  8  8  8  9
++         8  9  8  8  9  8  9  8  9 10  9 10 11  8 10  8  8
++        10 10  9  7  8  8  8  7  8  8  9  8  9  7  8  8  7
++        10  9  9  8  8  7  8  8  8  9  7  8  7  7  8  8  7
++         8  6  8  9  8  8  7  7  8  8  7  8  8  9  8  7  8
++         8  7  7  7  8  7  9  8 12 11 10 10  7  9  8  7  8
++         9  9  7  8  9  9  8  8  8  9 10  9 10  9  0  0  0
%c M  cc GPS ccc cccc cccc cccc cccc ccccc ccccc ccccc ccccc
%c cc cc ccc ccc cccc cccc cccc cccc ccccc ccccc ccccc ccccc
%f  0.0000000  0.000000000  0.00000000000  0.000000000000000
%f  0.0000000  0.000000000  0.00000000000  0.000000000000000
%i    0    0    0    0      0      0      0      0         0
%i    0    0    0    0      0      0      0      0         0
/* IAC                                ULTRA-RAPID PREDICTION
/* S/V CLOCKS ARE ALIGNED TO GNSS TIME                      
/* G:C1WC2W R:C1PC2P E:C1XC5X C:C2IC6I J:C1CC2S             
/* PCV:IGS14_2134 OL/AL:FES2004  NONE     YN ORB:CoN CLK:CoN
*  2021 02 10 17 15  0.00000000
PC06 -23368.632474  32147.122221 -14310.768642     79.911840
PC07  -9196.125045  34645.462902 -21533.807326   -313.325621
PC08 -12961.876979  17852.046286  36003.815434   -916.450819
PC09 -11073.442594  31278.392617 -25983.421497    742.609498
PC10   1170.541521  40345.331913 -11174.325794    -88.732717
PC11  -1522.383379 -16215.405419 -22598.936695   -931.311427
PC12  16414.001581 -18984.268091 -12179.782205    788.923372
PC13   3398.658332  24350.705198  34402.383041    135.829229
PC14  -4623.499169 -26958.782655   5694.940522    104.969165
PC16 -21726.670205  32492.426848 -16012.511098   -690.861116
PC19  10307.611717  21745.423547 -14093.873658    723.062898
PC20   -884.415228  27786.267178   2285.357319   -914.319242
PC21  12095.814032 -17502.521485 -18049.681356   -832.065135
PC22  15849.309435   2881.897976 -22781.899196   -874.851632
PC23 -25522.022910  -7195.950142  -8682.288781   -876.440915
PC24  -1390.814756 -18124.099074  21151.662346   -757.754336
PC25 -20132.308077 -17386.815130   8385.935836   -928.722291
PC26  16009.611760  -8619.247751  21169.104360    950.406764
PC27 -22697.116504  15905.055197   3342.819980    481.125819
PC28 -24091.587534   3069.974660 -13737.350637   -111.113269
PC29  11820.060490  11103.365855  22705.968185    350.610162
PC30  -7732.944414  19769.638088  18126.081484    443.069639
PC32 -12006.603753  17548.198304  18085.915934   -892.775650
PC33 -10420.577410 -21755.923475  14047.837927   -960.477471
PC34   7039.264264 -19648.499162 -18514.683586   -743.030998
PC35  23879.161349  -3604.053111  13951.301973   -424.215154
PC36  19521.418371  17957.175280  -8664.954467   -758.444423
PC37 -16838.116719   7658.567945 -20875.626073   -864.073420
PC38 -11373.083468  21070.358976  34725.311743    129.259437
PC39 -18853.926549  33930.242536 -16625.949953     28.331731
PC40  -3991.255650  39022.959468 -15265.108216    130.220170
PC41 -15908.945393  -3148.977367  22756.598742   -930.372908
PC42   1263.158406 -27731.399775  -2860.735125   -858.728882
PC43 -11424.382253 -11559.584099 -22689.107485   -591.877877
PC44  22205.862021 -16570.951878  -3158.283206     31.903649
PC45  25528.173419   7146.191407   8759.753713    358.673306
PC46   2463.985119  18320.156235 -20917.242809    411.488629
PE01   1747.188983  23682.706414 -17680.949614  -1043.340289
PE02  -1825.882505 -23709.356294  17607.639775    197.451270
PE03   8492.949732 -27706.368449   6057.149126   -397.152629
PE04   6637.659008  20081.234996 -20707.645795   -707.072356
PE05  18859.436950 -19173.867636 -12363.565492   -305.650343
PE07 -18127.002037   -460.041965  23397.867924   -499.129564
PE08  -6855.754312 -19765.480750  20942.938447   6048.946735
PE09  18058.818013    116.900148 -23454.212991   5769.818454
PE11  28702.464267   2057.458692   6898.374435   6340.641015
PE12  14896.031004  13150.796855  21940.684222   5362.743241
PE13 -28608.466494  -2182.632057  -7283.503653    411.842979
PE14 -17416.716239 -10852.352355 -24619.952612  -1325.333262
PE15 -15008.211286 -12994.470723 -21944.188558    829.963139
PE18  18598.383726   -856.171095  16037.430111  -1448.761484
PE19 -10113.841521  27541.992187  -3936.849773    200.488550
PE21 -13515.499728   9502.111107 -24564.242198   -647.724520
PE24  21488.731051  11387.092908  16881.984402   -736.567756
PE25  13649.948058  -9305.171287  24564.061831   -526.160635
PE26 -24964.679660  10209.703502  12205.624999   2163.540720
PE27 -21455.755496 -10642.977916 -17382.582994     32.665269
PE30 -16188.386073 -24755.804278    716.948056   3191.894236
PE31  16746.311749  24415.069652     34.590117   -478.165829
PE33  -7418.097151  16152.744409  23682.993831   -465.584544
PE36  25366.001120  -9875.956437 -11607.812232    442.415629
PG01 -15752.467718 -13657.974944 -16895.639995    763.872470
PG02  -8819.673292  14297.940356  21239.265591   -575.464037
PG03 -13170.154745 -22481.619378   5352.936926    -79.470519
PG04  -6123.834203 -15374.538143  20766.291433   -179.284050
PG05   1362.852199  23525.912424  11922.948539    -33.342568
PG06 -21454.302036   6684.304244  14265.965502     -3.190075
PG07 -25503.633971  -7073.877824   4695.952951     53.980662
PG08   -121.060005 -19890.742238 -17442.618303     -9.819531
PG09 -15592.610910  -4093.948672  21048.539900   -321.623362
PG10  15042.965260  -2573.259918 -21651.100886    -58.598410
PG11  -7048.594900 -14889.561754 -21274.363747    -28.364059
PG12   9160.800379  24968.390030   1343.340475      0.742302
PG13 -10706.344121  21549.270267 -11243.564550     95.700602
PG14 -15741.466581    594.551610 -21395.898826     95.829657
PG15   3194.471251  19902.843221 -17470.297598   -170.321731
PG16   2359.347262 -22589.687937  13134.358506   -278.126591
PG17 -20536.366987  11980.238647 -11399.655541    391.874112
PG18  26070.516751   5066.493508   1343.233885    346.628274
PG19 -20257.105075  16472.441728  -4880.166882    -40.262806
PG20  19152.083767   9134.096028 -16193.281374    524.759826
PG21  -8226.041392 -14637.433784 -19949.296709     94.447323
PG22  -9957.891314 -24449.041688  -3460.794609   -681.869873
PG23  17513.261427   8885.036131 -17923.492566    118.253232
PG24  11185.469241  14985.953258 -19238.438576      2.493160
PG25  16534.672918  16026.597555  13221.116072     77.791075
PG26   8911.523540 -15089.595684  19834.936533     42.951190
PG27  11062.980530 -22744.949131  -7619.024143    -73.689104
PG28 -14198.894653   3673.944981 -21580.610687    617.453492
PG29  14606.373790   5124.287019  21549.418124   -292.466095
PG30 -25659.057258   1130.894820  -7164.304501   -382.699056
PG31  19988.962711  -8037.528005  15754.182771    -99.276614
PG32  19945.859567 -13476.988765 -10938.019195     18.249233
PJ01 -28587.039911  26616.783133  20834.091838   -340.208050
PJ02 -22303.335736  18109.182933 -26387.204085      1.712705
PJ03 -29173.246652  30148.663465   9199.609816     -0.615381
PR01  -3301.640094  25276.488892   -756.146801     74.792756
PR02   6459.111037  15609.452409 -19097.836584    466.499568
PR03  11363.976446  -2833.737715 -22613.534178     30.619171
PR04   9605.942023 -19469.312374 -13359.907059     73.511987
PR05   2652.699768 -25129.073930   3403.829160     66.279040
PR07 -11460.369102   3611.222883  22542.056278    -42.400233
PR08  -9703.873730  19464.465815  13399.106614    -57.311308
PR11  -8834.762566   6796.928452 -22936.764479      3.518090
PR12   7447.033905  16883.690923 -17603.973269    203.911976
PR13  19128.870781  16715.045475  -2375.678815    -50.549293
PR14  19584.974927   6661.667745  14925.056838     60.854109
PR15   8697.065578  -7041.626652  22937.098180    105.469153
PR16  -8399.493858 -16994.544709  16967.613267    -11.162190
PR17  23599.427251  -4599.107845   8583.628830    398.921948
PR18  21017.253056 -11697.852943  -8385.403844     66.194739
PR19   8359.747217 -12499.138321 -20597.805238   -131.500837
PR20 -12369.143705  -5920.396369 -21506.022926   -433.082308
PR21 -23822.327018   5172.188369  -7468.589160   -186.741000
PR22 -20546.367933  11888.189738   9462.140657    -97.182318
PR24  13201.586418   5830.539302  21057.505375     31.033485
EOF
